     3.02           N: GNSS NAV DATA    E: GALILEO          RINEX VERSION / TYPE
GR25 V3.22          IGG of WUELS        20160907 235949 UTC PGM / RUN BY / DATE
GAL    6.3500D+01 -6.2500D-02  6.0120D-03  0.0000D+00       IONOSPHERIC CORR
GAUT  0.0000000000D+00-8.881784197D-16 259200 1913          TIME SYSTEM CORR
GPGA -6.4028427005D-10 0.000000000D+00 345600 1913          TIME SYSTEM CORR
    17    18  1929     7                                    LEAP SECONDS
                                                            END OF HEADER
E22 2016 09 08 12 00 00 3.177441540174D-04 2.507505314497D-10 0.000000000000D+00
     8.000000000000D+00-3.375000000000D+01 3.114058284456D-09 9.083485764785D-01
    -1.732259988785D-06 4.692660877481D-04 9.210780262947D-06 5.440603721619D+03
     3.888000000000D+05-5.029141902924D-08 1.683881585456D+00 3.166496753693D-08
     9.666989570861D-01 1.421250000000D+02 2.101760917841D+00-5.553802766749D-09
     1.928651764659D-10 5.190000000000D+02 1.913000000000D+03 0.000000000000D+00
     3.120000000000D+00 0.000000000000D+00-9.080395102501D-09-1.071020960808D-08
     3.894640000000D+05
E26 2016 09 08 12 00 00 1.443693763576D-03 4.167759470874D-10 0.000000000000D+00
     8.000000000000D+00-3.975000000000D+01 3.204419191207D-09-1.857662409679D+00
    -1.728534698486D-06 2.934150397778D-04 7.798895239830D-06 5.440603424072D+03
     3.888000000000D+05 4.656612873077D-08 1.683711895736D+00-6.332993507385D-08
     9.665851610775D-01 1.725000000000D+02 2.546358852901D+00-5.599161798992D-09
     1.571494030463D-10 5.190000000000D+02 1.913000000000D+03 0.000000000000D+00
     3.120000000000D+00 0.000000000000D+00-2.095475792885D-09-2.328306436539D-09
     3.894640000000D+05
E26 2016 09 08 12 10 00 1.443944347557D-03 4.167901579422D-10 0.000000000000D+00
     9.000000000000D+00-4.034375000000D+01 3.214062450031D-09-1.783584958981D+00
    -1.739710569382D-06 2.934059593827D-04 7.789582014084D-06 5.440603244781D+03
     3.894000000000D+05 6.146728992462D-08 1.683708490063D+00-6.146728992462D-08
     9.665852181313D-01 1.729375000000D+02 2.546667183367D+00-5.604162007271D-09
     1.653640309328D-10 5.190000000000D+02 1.913000000000D+03 0.000000000000D+00
     3.120000000000D+00 0.000000000000D+00-2.095475792885D-09-2.328306436539D-09
     3.900550000000D+05
E26 2016 09 08 12 20 00 1.444194407668D-03 4.167901579422D-10 0.000000000000D+00
     1.000000000000D+01-4.050000000000D+01 3.221562762449D-09-1.709298967849D+00
    -1.732259988785D-06 2.934001386166D-04 7.793307304382D-06 5.440603185654D+03
     3.900000000000D+05 7.450580596924D-08 1.683705080001D+00-5.587935447693D-08
     9.665852766480D-01 1.731562500000D+02 2.546767018749D+00-5.608805057815D-09
     1.742929742877D-10 5.190000000000D+02 1.913000000000D+03 0.000000000000D+00
     3.120000000000D+00 0.000000000000D+00-2.095475792885D-09-2.328306436539D-09
     3.906550000000D+05
E26 2016 09 08 12 30 00 1.444444176741D-03 4.167759470874D-10 0.000000000000D+00
     1.100000000000D+01-4.031250000000D+01 3.226562970727D-09-1.634808010190D+00
    -1.713633537292D-06 2.934026997536D-04 7.813796401024D-06 5.440603252411D+03
     3.906000000000D+05 8.754432201385D-08 1.683701664087D+00-4.656612873077D-08
     9.665853395535D-01 1.729687500000D+02 2.546661932954D+00-5.612733792891D-09
     1.842933908452D-10 5.190000000000D+02 1.913000000000D+03 0.000000000000D+00
     3.120000000000D+00 0.000000000000D+00-2.095475792885D-09-2.328306436539D-09
     3.912550000000D+05
E26 2016 09 08 12 40 00 1.444695226382D-03 4.167901579422D-10 0.000000000000D+00
     1.200000000000D+01-3.993750000000D+01 3.230848863538D-09-1.560128700365D+00
    -1.689419150352D-06 2.934414660558D-04 7.856637239456D-06 5.440603445053D+03
     3.912000000000D+05 1.024454832077D-07 1.683698208674D+00-2.980232238770D-08
     9.665853892927D-01 1.723437500000D+02 2.546368537419D+00-5.617019685702D-09
     1.985797002130D-10 5.190000000000D+02 1.913000000000D+03 0.000000000000D+00
     3.120000000000D+00 0.000000000000D+00-2.095475792885D-09-2.328306436539D-09
     3.918550000000D+05
E26 2016 09 08 12 50 00 1.444945344701D-03 4.167759470874D-10 0.000000000000D+00
     1.300000000000D+01-3.946875000000D+01 3.231206021272D-09-1.485249956771D+00
    -1.663342118263D-06 2.935054944828D-04 7.923692464828D-06 5.440603763580D+03
     3.918000000000D+05 1.080334186554D-07 1.683694794224D+00-2.048909664154D-08
     9.665854858453D-01 1.711875000000D+02 2.545875709577D+00-5.619162632107D-09
     2.060800126311D-10 5.190000000000D+02 1.913000000000D+03 0.000000000000D+00
     3.120000000000D+00 0.000000000000D+00-2.095475792885D-09-2.328306436539D-09
     3.924550000000D+05
E26 2016 09 08 13 00 00 1.445195346605D-03 4.167759470874D-10 0.000000000000D+00
     1.400000000000D+01-3.912500000000D+01 3.229777390335D-09-1.410219985483D+00
    -1.642853021622D-06 2.936065429822D-04 8.011236786842D-06 5.440604194641D+03
     3.924000000000D+05 1.136213541031D-07 1.683691353440D+00-1.862645149231D-09
     9.665855721574D-01 1.695625000000D+02 2.545231687688D+00-5.620591263044D-09
     2.182233755938D-10 5.190000000000D+02 1.913000000000D+03 0.000000000000D+00
     3.120000000000D+00 0.000000000000D+00-2.095475792885D-09-2.328306436539D-09
     3.930550000000D+05
E26 2016 09 08 13 10 00 1.445445173886D-03 4.167759470874D-10 0.000000000000D+00
     1.500000000000D+01-3.896875000000D+01 3.226562970727D-09-1.335071770915D+00
    -1.635402441025D-06 2.937465906143D-04 8.119270205498D-06 5.440604726791D+03
     3.930000000000D+05 1.154839992523D-07 1.683687906805D+00 1.676380634308D-08
     9.665856687100D-01 1.675312500000D+02 2.544469426908D+00-5.620948420778D-09
     2.303667385565D-10 5.190000000000D+02 1.913000000000D+03 0.000000000000D+00
     3.120000000000D+00 0.000000000000D+00-2.095475792885D-09-2.328306436539D-09
     3.936550000000D+05
E26 2016 09 08 13 20 00 1.445695292205D-03 4.167759470874D-10 0.000000000000D+00
     1.600000000000D+01-3.918750000000D+01 3.221205604714D-09-1.259859622439D+00
    -1.646578311920D-06 2.939275000244D-04 8.238479495049D-06 5.440605339050D+03
     3.936000000000D+05 1.136213541031D-07 1.683684455781D+00 3.539025783539D-08
     9.665857755031D-01 1.651562500000D+02 2.543643224905D+00-5.620234105310D-09
     2.428672592533D-10 5.190000000000D+02 1.913000000000D+03 0.000000000000D+00
     3.120000000000D+00 0.000000000000D+00-2.095475792885D-09-2.328306436539D-09
     3.942550000000D+05
E26 2016 09 08 13 30 00 1.445945352316D-03 4.167759470874D-10 0.000000000000D+00
     1.700000000000D+01-3.978125000000D+01 3.214419607765D-09-1.184623818577D+00
    -1.676380634308D-06 2.941447310150D-04 8.365139365196D-06 5.440606008530D+03
     3.942000000000D+05 1.061707735062D-07 1.683680998906D+00 5.401670932770D-08
     9.665858925365D-01 1.626562500000D+02 2.542793360201D+00-5.618448316639D-09
     2.553677799502D-10 5.190000000000D+02 1.913000000000D+03 0.000000000000D+00
     3.120000000000D+00 0.000000000000D+00-2.095475792885D-09-2.328306436539D-09
     3.948550000000D+05
E24 2016 09 08 13 30 00-6.727315485477D-04-6.211564596015D-11 0.000000000000D+00
     1.700000000000D+01 2.484375000000D+01 2.681540268344D-09 5.766300367841D-01
     9.015202522278D-07 1.296438276768D-04 4.161149263382D-06 5.440614570618D+03
     3.942000000000D+05 4.284083843231D-08-4.131043238875D-01 1.303851604462D-08
     9.985268684464D-01 2.691250000000D+02 5.682774591972D-01-5.573803599864D-09
     3.500145795122D-11 5.190000000000D+02 1.913000000000D+03 0.000000000000D+00
     3.120000000000D+00 0.000000000000D+00 3.958120942116D-08 4.447065293789D-08
     3.954250000000D+05
E26 2016 09 08 13 40 00 1.446195237804D-03 4.167759470874D-10 0.000000000000D+00
     1.800000000000D+01-4.081250000000D+01 3.206562137612D-09-1.109412742420D+00
    -1.728534698486D-06 2.943975850940D-04 8.489936590195D-06 5.440606706619D+03
     3.948000000000D+05 9.499490261078D-08 1.683677531790D+00 7.078051567078D-08
     9.665860154216D-01 1.601562500000D+02 2.541968201259D+00-5.615233897031D-09
     2.689397738497D-10 5.190000000000D+02 1.913000000000D+03 0.000000000000D+00
     3.120000000000D+00 0.000000000000D+00-2.095475792885D-09-2.328306436539D-09
     3.954550000000D+05
E24 2016 09 08 13 40 00-6.727693253197D-04-6.211564596015D-11 0.000000000000D+00
     1.800000000000D+01 2.484375000000D+01 2.668682589913D-09 6.501850267704D-01
     9.015202522278D-07 1.297201961279D-04 4.166737198830D-06 5.440614833832D+03
     3.948000000000D+05 4.097819328308D-08-4.131076988395D-01 2.235174179077D-08
     9.985268728351D-01 2.680937500000D+02 5.691076213196D-01-5.573803599864D-09
     4.071598169835D-11 5.190000000000D+02 1.913000000000D+03 0.000000000000D+00
     3.120000000000D+00 0.000000000000D+00 3.958120942116D-08 4.447065293789D-08
     3.954850000000D+05
E26 2016 09 08 13 50 00 1.446445530746D-03 4.167759470874D-10 0.000000000000D+00
     1.900000000000D+01-4.225000000000D+01 3.197990351992D-09-1.034266126821D+00
    -1.797452569008D-06 2.946649910882D-04 8.605420589447D-06 5.440607412338D+03
     3.954000000000D+05 8.195638656616D-08 1.683674083692D+00 8.381903171539D-08
     9.665861587876D-01 1.578125000000D+02 2.541207463377D+00-5.611662319689D-09
     2.800116636097D-10 5.190000000000D+02 1.913000000000D+03 0.000000000000D+00
     3.120000000000D+00 0.000000000000D+00-2.095475792885D-09-2.328306436539D-09
     3.960550000000D+05
E24 2016 09 08 13 50 00-6.728066364303D-04-6.211564596015D-11 0.000000000000D+00
     1.900000000000D+01 2.475000000000D+01 2.657610700153D-09 7.239116565462D-01
     9.015202522278D-07 1.297673443332D-04 4.163011908531D-06 5.440615028381D+03
     3.954000000000D+05 4.097819328308D-08-4.131110445332D-01 2.235174179077D-08
     9.985269006305D-01 2.673125000000D+02 5.697660865988D-01-5.573803599864D-09
     4.107313943255D-11 5.190000000000D+02 1.913000000000D+03 0.000000000000D+00
     3.120000000000D+00 0.000000000000D+00 3.958120942116D-08 4.447065293789D-08
     3.960640000000D+05
